443P/PANSTARRS-Christensen,e,19.8882,108.9424,145.1111,4.125628,0.1176167,0.28337416,60.7999,03/10.0/2024,2000,g 13.5,4.0
# From MPEC 2023-VM5
444P/WISE-PANSTARRS,e,22.2670,88.9070,171.6258,3.439910,0.1544840,0.57044104,93.9461,03/10.0/2024,2000,g 17.0,4.0
# From MPEC 2024-BE0
445P/Lemmon-PANSTARRS,e,1.0885,126.5923,213.3963,4.051606,0.1208546,0.41399496,69.0215,03/10.0/2024,2000,g 15.0,4.0
# From MPEC 2022-WQ9
446P/McNaught,e,16.6151,336.3804,344.6787,4.565520,0.1010343,0.64677977,65.7363,03/10.0/2024,2000,g 16.5,4.0
# From MPEC 2022-YB4
447P/Sheppard-Tholen,e,7.4376,302.6398,97.7231,5.633019,0.0737212,0.17842475,41.9484,03/10.0/2024,2000,g 12.0,4.0
# From MPEC 2023-A50
448P/PANSTARRS,e,12.1503,161.7568,218.7540,3.634807,0.1422270,0.41868049,78.2929,03/10.0/2024,2000,g 16.0,4.0
# From MPEC 2024-DC6
449P/Leonard,e,15.4710,242.5241,176.7243,3.600122,0.1442873,0.47983217,173.3588,03/10.0/2024,2000,g 16.0,4.0
# From MPEC 2024-D33
450P/LONEOS,e,10.5589,124.7747,21.4178,7.972088,0.0437871,0.31212890,314.2997,03/10.0/2024,2000,g  6.5,4.0
# From MPEC 2023-HD1
451P/Christensen,e,26.4795,300.8945,186.7247,6.344146,0.0616800,0.55888860,28.8890,03/10.0/2024,2000,g 15.5,4.0
# From MPEC 2023-J29
452P/Sheppard-Jewitt,e,6.4215,123.6856,37.0455,7.302542,0.0499451,0.42786966,15.9542,03/10.0/2024,2000,g  9.0,4.0
# From MPEC 2023-RF3
453P/WISE-Lemmon,e,27.0678,42.8960,70.8511,5.462504,0.0771999,0.58286426,28.7868,03/10.0/2024,2000,g 14.0,4.0
# From MPEC 2023-CD7
454P/PANSTARRS,e,19.8127,54.5823,20.0882,4.208436,0.1141624,0.36157649,67.6589,03/10.0/2024,2000,g 14.0,4.0
# From MPEC 2022-Y14
455P/PANSTARRS,e,14.1378,146.1842,237.5056,3.152637,0.1760731,0.30484994,66.6976,03/10.0/2024,2000,g 17.0,4.0
# From MPEC 2023-N01
456P/PANSTARRS,e,16.9669,243.1623,233.6500,3.171626,0.1744942,0.11763662,289.5698,03/10.0/2024,2000,g 13.5,4.0
# From MPEC 2023-F99
457P/Lemmon-PANSTARRS,e,5.2251,175.9725,104.3977,2.646107,0.2289776,0.11870280,322.5897,03/10.0/2024,2000,g 15.5,4.0
# From MPEC 2023-HD1
458P/Jahn,e,13.6265,1.5860,104.8356,3.857664,0.1300821,0.31711074,64.6074,03/10.0/2024,2000,g 17.3,4.0
# From MPEC 2023-UR6
459P/Catalina,e,7.1728,256.9899,205.2010,3.239745,0.1690199,0.57770361,64.6624,03/10.0/2024,2000,g 15.5,4.0
# From MPEC 2023-G14
460P/PANSTARRS,e,18.8955,180.5151,351.9527,3.027100,0.1871389,0.66401336,186.7038,03/10.0/2024,2000,g 21.0,4.0
# From MPEC 2024-D33
461P/WISE,e,18.4097,194.3784,174.8277,3.143311,0.1768574,0.57009724,156.8937,03/10.0/2024,2000,g 18.5,4.0
# From MPEC 2024-BE0
462P/LONEOS-PANSTARRS,e,7.0276,322.7779,4.3694,4.877068,0.0915094,0.57821784,53.6347,03/10.0/2024,2000,g 17.0,4.0
# From MPEC 2023-XP6
463P/NEOWISE,e,29.2854,283.2099,216.3563,2.974470,0.1921276,0.82561386,66.5461,03/10.0/2024,2000,g 18.0,4.0
# From MPEC 2023-RF3
464P/PANSTARRS,e,21.6667,309.5802,267.6475,4.686706,0.0971410,0.28050398,36.5419,03/10.0/2024,2000,g 10.5,4.0
# From MPEC 2024-AF0
465P/Hill,e,25.8701,218.0082,141.1399,6.031075,0.0665445,0.61397099,20.3200,03/10.0/2024,2000,g 12.5,4.0
# From MPEC 2023-VM5
466P/PANSTARRS,e,12.2364,119.8026,196.8325,4.048211,0.1210067,0.46769256,37.6419,03/10.0/2024,2000,g 14.0,4.0
# From MPEC 2023-T65
467P/LINEAR-Grauer,e,2.4789,43.2697,267.8463,5.831153,0.0699959,0.05531428,32.4970,03/10.0/2024,2000,g  9.0,4.0
# From MPEC 2023-XP6
468P/SidingSpring,e,50.4462,356.1239,322.5663,7.123365,0.0518414,0.44550049,5.6958,03/10.0/2024,2000,g 11.5,4.0
# From MPEC 2023-P35
469P/PANSTARRS,e,20.1741,178.9653,43.5272,4.340083,0.1090077,0.30754977,290.3794,03/10.0/2024,2000,g 13.5,4.0
# From MPEC 2024-D33
470P/PANSTARRS,e,8.8422,246.1741,151.9805,4.476682,0.1040566,0.39049295,8.6421,03/10.0/2024,2000,g 15.5,4.0
# From MPEC 2024-DC6
471P/,e,4.7912,283.3252,94.9694,5.711393,0.0722089,0.62825272,5.8292,03/10.0/2024,2000,g 12.0,4.0
# From MPEC 2024-D33
472P/NEAT-LINEAR,e,10.8504,206.0383,219.0787,7.820837,0.0450634,0.56668888,354.2135,03/10.0/2024,2000,g 10.5,4.0
# From MPEC 2024-DC6
473P/NEAT,e,56.9082,22.1847,42.9171,7.970742,0.0437982,0.82363162,0.5588,03/10.0/2024,2000,g 13.5,4.0
# From MPEC 2024-B74
474P/Hogan,e,1.0970,26.7568,11.3142,3.131315,0.1778746,0.18846387,42.3184,03/10.0/2024,2000,g 15.5,4.0
# From MPEC 2024-DC6
475P/Spacewatch-LINEAR,e,14.5261,147.3779,40.4000,7.307405,0.0498953,0.44200918,355.8253,03/10.0/2024,2000,g 11.0,4.0
# From MPEC 2024-C04
476P/PANSTARRS,e,19.0088,57.0607,46.7517,4.794114,0.0938948,0.34849158,339.2835,03/10.0/2024,2000,g 12.5,4.0
# From MPEC 2024-D33
477P/PANSTARRS,e,8.9151,59.1590,306.0128,3.004739,0.1892317,0.41735587,14.0510,03/10.0/2024,2000,g 14.5,4.0
# From MPEC 2024-D33
478P/ATLAS,e,12.5252,127.2716,13.1759,3.645723,0.1415887,0.34344647,352.5018,03/10.0/2024,2000,g 13.5,4.0
# From MPEC 2024-E49
479P/Elenin,e,15.3979,295.8342,263.5250,5.622300,0.0739321,0.77879133,355.8417,03/10.0/2024,2000,g 15.0,4.0
# From MPEC 2024-E49
480P/PANSTARRS,e,13.7175,229.9773,214.2504,4.607541,0.0996553,0.24634145,32.0981,03/10.0/2024,2000,g 12.0,4.0
# From MPC107687
1I/`Oumuamua,h,09/09.4886/2017,122.6778,24.5997,241.6845,1.199252,0.255240,2000,23.0,2.0
# From MPEC 2023-L37
2I/Borisov,h,12/08.5548/2019,44.0527,308.1480,209.1251,3.356633,2.006548,2000,11.0,4.0
